0 FENGYUN 1C DEB
1 31881U 99025CKG 13281.39582930  .00004910  00000-0  11285-2 0  3784
2 31881 099.0578 077.7188 0134114 344.1086 015.5914 14.50560175332590
0 FENGYUN 1C DEB
1 31881U 99025CKG 13287.67264924  .00004912  00000-0  11272-2 0  3790
2 31881 099.0579 084.4702 0134185 325.2581 033.9903 14.50622472333509
0 FENGYUN 1C DEB
1 31881U 99025CKG 13291.68387881  .00011507  00000-0  26165-2 0  3801
2 31881 099.0577 088.7920 0133517 312.8238 103.6289 14.50738513334085
